[{"OBJECT_NAME":"LEGION 2","OBJECT_ID":"2024-081B","EPOCH":"2025-03-09T21:42:30.968640","MEAN_MOTION":15.165144,"ECCENTRICITY":0.0001649,"INCLINATION":97.5441,"RA_OF_ASC_NODE":145.404,"ARG_OF_PERICENTER":48.9163,"MEAN_ANOMALY":311.2212,"EPHEMERIS_TYPE":0,"CLASSIFICATION_TYPE":"U","NORAD_CAT_ID":59626,"ELEMENT_SET_NO":999,"REV_AT_EPOCH":4716,"BSTAR":0.00049077,"MEAN_MOTION_DOT":9.502e-5,"MEAN_MOTION_DDOT":0},{"OBJECT_NAME":"ALOS-4 (DAICHI-4)","OBJECT_ID":"2024-123A","EPOCH":"2025-03-09T20:36:57.682080","MEAN_MOTION":14.79487808,"ECCENTRICITY":0.0001496,"INCLINATION":97.9197,"RA_OF_ASC_NODE":167.6979,"ARG_OF_PERICENTER":100.0421,"MEAN_ANOMALY":260.096,"EPHEMERIS_TYPE":0,"CLASSIFICATION_TYPE":"U","NORAD_CAT_ID":60182,"ELEMENT_SET_NO":999,"REV_AT_EPOCH":3722,"BSTAR":0.00061756,"MEAN_MOTION_DOT":4.565e-5,"MEAN_MOTION_DDOT":0},{"OBJECT_NAME":"LEGION 3","OBJECT_ID":"2024-146A","EPOCH":"2025-03-09T20:31:34.088160","MEAN_MOTION":15.15413797,"ECCENTRICITY":0.0029836,"INCLINATION":45.0024,"RA_OF_ASC_NODE":0.0946,"ARG_OF_PERICENTER":74.3963,"MEAN_ANOMALY":286.0205,"EPHEMERIS_TYPE":0,"CLASSIFICATION_TYPE":"U","NORAD_CAT_ID":60452,"ELEMENT_SET_NO":999,"REV_AT_EPOCH":3156,"BSTAR":0.00055189,"MEAN_MOTION_DOT":0.00010464,"MEAN_MOTION_DDOT":0},{"OBJECT_NAME":"LEGION 4","OBJECT_ID":"2024-146B","EPOCH":"2025-03-09T12:53:32.310528","MEAN_MOTION":15.15884501,"ECCENTRICITY":0.0003657,"INCLINATION":45.0382,"RA_OF_ASC_NODE":92.7213,"ARG_OF_PERICENTER":172.8701,"MEAN_ANOMALY":187.223,"EPHEMERIS_TYPE":0,"CLASSIFICATION_TYPE":"U","NORAD_CAT_ID":60453,"ELEMENT_SET_NO":999,"REV_AT_EPOCH":3036,"BSTAR":0.0005509,"MEAN_MOTION_DOT":0.00010479,"MEAN_MOTION_DDOT":0},{"OBJECT_NAME":"SENTINEL-2C","OBJECT_ID":"2024-157A","EPOCH":"2025-03-09T20:05:30.289632","MEAN_MOTION":14.3082215,"ECCENTRICITY":0.0001079,"INCLINATION":98.5643,"RA_OF_ASC_NODE":145.3839,"ARG_OF_PERICENTER":97.2956,"MEAN_ANOMALY":262.8349,"EPHEMERIS_TYPE":0,"CLASSIFICATION_TYPE":"U","NORAD_CAT_ID":60989,"ELEMENT_SET_NO":999,"REV_AT_EPOCH":2658,"BSTAR":0.00011959,"MEAN_MOTION_DOT":2.7e-6,"MEAN_MOTION_DDOT":0}]
