LEGION 2                
1 59626U 24081B   25068.90452510  .00009502  00000+0  49077-3 0  9995
2 59626  97.5441 145.4040 0001649  48.9163 311.2212 15.16514400 47166
ALOS-4 (DAICHI-4)       
1 60182U 24123A   25068.85900095  .00004565  00000+0  61756-3 0  9993
2 60182  97.9197 167.6979 0001496 100.0421 260.0960 14.79487808 37227
LEGION 3                
1 60452U 24146A   25068.85525565  .00010464  00000+0  55189-3 0  9991
2 60452  45.0024   0.0946 0029836  74.3963 286.0205 15.15413797 31564
LEGION 4                
1 60453U 24146B   25068.53717952  .00010479  00000+0  55090-3 0  9997
2 60453  45.0382  92.7213 0003657 172.8701 187.2230 15.15884501 30366
SENTINEL-2C             
1 60989U 24157A   25068.83715613  .00000270  00000+0  11959-3 0  9992
2 60989  98.5643 145.3839 0001079  97.2956 262.8349 14.30822150 26588
